BEIDOU-3 M23            
1 44543U 19061B   25334.69415939  .00000115  00000+0  00000+0 0  9995
2 44543  54.3987 189.3914 0006005  20.8242 335.9718  1.86229336 42093
BEIDOU-3 IGSO-3         
1 44709U 19073A   25324.29956875 -.00000206  00000+0  00000+0 0  9998
2 44709  55.1630 283.1590 0044538 191.5856 168.2409  1.00250097 22360
BEIDOU-3 M22            
1 44793U 19078A   25334.40928380 -.00000053  00000+0  00000+0 0  9990
2 44793  54.1199 306.8190 0005608  22.4317 337.5884  1.86231859 40941
BEIDOU-3 M21            
1 44794U 19078B   25334.54667612 -.00000054  00000+0  00000+0 0  9995
2 44794  54.0927 306.7796 0003851   9.9738 350.0289  1.86227555 40954
BEIDOU-3 M19            
1 44864U 19090A   25334.32657953 -.00000033  00000+0  00000+0 0  9997
2 44864  56.3822  69.3740 0017450 284.6281 123.4614  1.86231174 40537
BEIDOU-3 M20            
1 44865U 19090B   25334.72980675 -.00000036  00000+0  00000+0 0  9995
2 44865  56.3841  69.3949 0014593 297.5336 110.5134  1.86231137 40521
BEIDOU-3 G2             
1 45344U 20017A   25334.87802623 -.00000121  00000+0  00000+0 0  9996
2 45344   2.9770  43.5121 0004412 264.0139 158.6326  1.00270725 21276
BEIDOU-3 G3             
1 45807U 20040A   25334.59874426 -.00000332  00000+0  00000+0 0  9999
2 45807   1.9592  66.4892 0004938 307.3549  21.9844  1.00268305 20074
